#cP2017  9  2  0  0  0.00000000      96   u+U IGb08 FIT  WHU
## 1964 518400.00000000   900.00000000 57998     0.000000000
+   84   G01G02G03G06G07G08G09G10G11G12G13G14G15G16G17G18G19
+        G20G21G22G23G24G25G26G27G28G29G30G31G32R01R02R03R04
+        R05R06R07R08R09R10R11R13R15R16R17R18R19R20R21R22R23
+        R24E01E02E03E04E05E07E08E09E11E12E14E18E19E22E24E26
+        E30C01C02C03C04C05C06C07C08C09C10C11C12C13C14J01  0
+          0  0  0  0  0  0  0  0  0  0  0  0  0  0  0  0  0
+          0  0  0  0  0  0  0  0  0  0  0  0  0  0  0  0  0
+          0  0  0  0  0  0  0  0  0  0  0  0  0  0  0  0  0
+          0  0  0  0  0  0  0  0  0  0  0  0  0  0  0  0  0
+          0  0  0  0  0  0  0  0  0  0  0  0  0  0  0  0  0
++         4  4  5  4  4  4  4  5  4  3  4  4  4  3  4  4  4
++         3  4  3  3  4  3  3  4  3  4  4  4  4  4  4  4  3
++         3  4  3  4  3  3  4  3  4  4  3  3  3  3  3  3  4
++         3  9  9  9  9  9  9  9  9  9  9  0  0  9  9  9  9
++         9 10  8  0  9  9  9  9  9 10 10 10 10 10 10  0  0
++         0  0  0  0  0  0  0  0  0  0  0  0  0  0  0  0  0
++         0  0  0  0  0  0  0  0  0  0  0  0  0  0  0  0  0
++         0  0  0  0  0  0  0  0  0  0  0  0  0  0  0  0  0
++         0  0  0  0  0  0  0  0  0  0  0  0  0  0  0  0  0
++         0  0  0  0  0  0  0  0  0  0  0  0  0  0  0  0  0
%c M  cc GPS ccc cccc cccc cccc cccc ccccc ccccc ccccc ccccc
%c cc cc ccc ccc cccc cccc cccc cccc ccccc ccccc ccccc ccccc
%f  1.2500000  1.025000000  0.00000000000  0.000000000000000
%f  0.0000000  0.000000000  0.00000000000  0.000000000000000
%i    0    0    0    0      0      0      0      0         0
%i    0    0    0    0      0      0      0      0         0
/* GNSS RESEARCH CENTER, WUHAN UNIVERSITY (WHU), P. R. CHINA
/* POSITION AND NAVIGATION DATA ANALYST (PANDA) SOFTWARE    
/* PCV:IGS08_1962 OL/AL:FES2004  NONE     NN ORB:CoM CLK:CoN
/*
*  2017  9  2 10 30  0.00000000
PG01  10588.938913 -20830.770464 -12490.739443     55.513428
PG02 -21152.356192  13960.379894  -6866.969855    339.895677
PG03    820.208014 -15570.672929 -21517.069526    -72.271950
PG06 -19467.193240    810.315840 -18040.772927    393.950968
PG07  -3781.287703 -16029.095220  20941.328287    307.902544
PG08   7636.540470 -19102.228674  16792.171917    -72.072534
PG09  -7477.414226 -25345.992326   2590.231654    435.910742
PG10  24016.807771  10780.730471   4032.174837     54.029370
PG11   8796.556653 -24967.425921  -3302.816745   -713.072467
PG12  -6006.371976  13395.579531 -22296.315704    374.073710
PG13 -12405.034334  12717.963464  19643.508714    -90.707593
PG14  15298.344200   5909.386940 -20644.883771    -82.559197
PG15  -4737.946057  21678.401048  14133.973818   -355.381884
PG16  21312.914125  -2347.016711  15803.940870     36.933700
PG17 -13583.121347 -15650.863001 -16339.352202   -159.712237
PG18  17286.788754  15451.301393  13708.070988    628.613669
PG19 -15042.563899  -6570.372245 -21110.954642   -488.206753
PG20  -6048.558561  14815.132448  21049.572009    485.285391
PG21   8652.739368  13751.645182  21793.047205   -482.535418
PG22  10243.509878 -13168.662933 -20432.569652   -108.381090
PG23   -749.052877 -25435.581273  -6526.015924   -216.948294
PG24 -12204.636253  21400.906086  -9673.581976    -39.365945
PG25   7696.167571  16488.827642 -19579.776952   -449.353978
PG26  25540.511647   2956.040053   6851.303508   -436.942238
PG27  13399.250759  -7381.418592  21625.610149    319.315850
PG28 -21048.714402 -14504.825111   7821.653426    642.443859
PG29   3853.724078  26287.773391   -100.027996    567.733741
PG30 -14185.689243  -8036.046142  20997.703751    142.703958
PG31  20940.584074  -2888.226840 -16255.099193    177.925931
PG32  15459.415726  12273.567760 -17773.028531   -493.492942
PR01    590.736385 -13493.612306 -21637.643865     14.915357
PR02 -14965.281574 -18928.349935  -8163.341936    268.233671
PR03 -20210.581826 -12338.331823   9475.998766    109.650988
PR04 -13362.890885   1793.524010  21667.973968    229.173821
PR05    735.560308  14314.331867  21093.174709   -157.427836
PR06  15707.561599  18727.473983   7338.762145    116.996567
PR07  20193.318582  12212.832682  -9687.712479    -15.334241
PR08  13766.148541  -1223.657753 -21386.232545    -26.772346
PR09   6003.886943   9635.521274 -22820.792178     36.742398
PR10  21581.058270    -64.433644 -13540.733181      9.706737
PR11  23517.448429  -9012.803717   3892.299608     -9.194485
PR13  -7874.196455  -8562.089387  22690.148489     -2.301071
PR15 -24225.457924   7783.591591   -865.488878     -0.639795
PR16 -11747.416874  12999.953803 -18510.606539     73.275377
PR17  -9555.029716  -5969.664756 -22886.851595     68.322895
PR18 -11759.822472  12336.444930 -18995.876225    164.589217
PR19  -7764.482444  23969.053677  -3973.703384    -21.966285
PR20   1354.484138  21232.030795  14106.383679   -305.669111
PR21   9528.428586   5785.807065  22934.039899    132.260250
PR22  11620.742023 -13597.383839  18123.595953     26.989881
PR23   6209.276173 -24713.538723   1192.021005    105.322257
PR24  -1921.974111 -21011.280564 -14361.009450   -155.227133
PE01  -5153.968838 -15382.255469  24764.712766   -151.514454
PE02   5152.417266  15376.870627 -24756.717600     -8.073751
PE03  11688.207662  25400.677711   9707.506761     66.038332
PE04 -22195.528929 -17517.262158   8758.167861    128.832127
PE05  -5672.908008  18399.702270  22488.617563    428.021077
PE07  19685.608706   -635.848495 -22082.634527    176.887573
PE08  22314.458486  17386.789287  -8691.493984   6747.784518
PE09 -19634.710796    671.276636  22155.425792   7028.159736
PE11 -18661.766058  11545.089873 -19880.909449   1801.122116
PE12 -13938.732592  -9694.056812 -24248.451122   2301.627920
PE14   3569.098430 -22597.029873   8111.058498   6723.125068
PE18 -11147.708292  24766.845534 -17026.359866   6831.957036
PE19 -10409.630468 -25278.704284 -11333.143118     13.728949
PE22   1440.460317  25411.190142  15088.566931   6577.570587
PE24 -28826.728458   6252.891577  -2445.304528   5767.682194
PE26  12653.415682 -26514.662771   3652.537772   6887.387429
PE30  24208.270005   6475.779265 -15753.869846   6521.060626
PC01 -32300.256929  27089.381504  -1074.621526   -306.740143
PC02   4390.812990  41905.670067    816.375746     81.959191
PC03 -14680.087122  39520.868916   -678.914189   -235.322763
PC04 -39608.351631  14440.779272   -565.566419     97.843059
PC05  21922.288917  35991.974843   1118.484691    304.904848
PC06  -6825.775250  28244.101631  30878.286727     -4.031751
PC07 -22867.944799  23677.437169 -26445.704502     98.780709
PC08 -18561.080021  37503.470428  -3945.024226   -580.241480
PC09   6237.786134  36156.415261  21172.698441   -899.407633
PC10  -6981.283934  25861.938107 -32508.678834    133.725248
PC11  13763.588720  11651.225772  21313.283260    516.761794
PC12   4121.710147  26546.469613   7386.495144    173.557018
PC13  -8305.586307  39741.485616  10867.214066    705.837100
PC14  24135.401414  14039.723016   -898.804384    853.620645
PJ01 -27080.344095  23712.634282  27092.784868    -39.442494
EOF
